start=new Date('2022-11-06T00:00:00.000Z').valueOf();
sats=[{"INCLINATION":"53.0530","EPOCH":"2022-11-05T19:16:39.167040","NORAD_CAT_ID":"48463","DECAY_DATE":null,"PERIOD":"95.593","EPHEMERIS_TYPE":"0","ELEMENT_SET_NO":"999","MEAN_MOTION_DOT":"-0.00004446","CLASSIFICATION_TYPE":"U","SITE":"AFETR","TLE_LINE1":"1 48463U 21040AM  22309.80323110 -.00004446  00000-0 -27993-3 0  9999","APOAPSIS":"548.474","OBJECT_ID":"2021-040AM","OBJECT_TYPE":"PAYLOAD","REF_FRAME":"TEME","COUNTRY_CODE":"US","PERIAPSIS":"546.074","LAUNCH_DATE":"2021-05-09","FILE":"3646512","ECCENTRICITY":"0.00017330","REV_AT_EPOCH":"8263","MEAN_MOTION_DDOT":"0.0000000000000","ARG_OF_PERICENTER":"58.6292","TLE_LINE2":"2 48463  53.0530 267.9152 0001733  58.6292 301.4867 15.06380188 82639","BSTAR":"-0.00027993000000","OBJECT_NAME":"STARLINK-2689","RA_OF_ASC_NODE":"267.9152","MEAN_ELEMENT_THEORY":"SGP4","MEAN_ANOMALY":"301.4867","CENTER_NAME":"EARTH","SEMIMAJOR_AXIS":"6925.409","MEAN_MOTION":"15.06380188","GP_ID":"217018084","TIME_SYSTEM":"UTC","RCS_SIZE":"LARGE"},{"INCLINATION":"53.0540","EPOCH":"2022-11-05T13:59:33.318528","NORAD_CAT_ID":"48464","DECAY_DATE":null,"PERIOD":"95.593","EPHEMERIS_TYPE":"0","ELEMENT_SET_NO":"999","MEAN_MOTION_DOT":"-0.00002469","CLASSIFICATION_TYPE":"U","TLE_LINE1":"1 48464U 21040AN  22309.58302452 -.00002469  00000-0 -14699-3 0  9993","APOAPSIS":"548.726","SITE":"AFETR","OBJECT_ID":"2021-040AN","OBJECT_TYPE":"PAYLOAD","REF_FRAME":"TEME","COUNTRY_CODE":"US","PERIAPSIS":"545.827","LAUNCH_DATE":"2021-05-09","FILE":"3646512","ECCENTRICITY":"0.00020930","REV_AT_EPOCH":"8259","MEAN_MOTION_DDOT":"0.0000000000000","ARG_OF_PERICENTER":"52.1381","BSTAR":"-0.00014699000000","TLE_LINE2":"2 48464  53.0540 268.9027 0002093  52.1381 307.9797 15.06379555 82595","OBJECT_NAME":"STARLINK-2686","RA_OF_ASC_NODE":"268.9027","MEAN_ELEMENT_THEORY":"SGP4","MEAN_ANOMALY":"307.9797","CENTER_NAME":"EARTH","SEMIMAJOR_AXIS":"6925.411","GP_ID":"217017835","MEAN_MOTION":"15.06379555","TIME_SYSTEM":"UTC","RCS_SIZE":"MEDIUM"},{"INCLINATION":"53.0531","NORAD_CAT_ID":"48465","DECAY_DATE":null,"EPOCH":"2022-11-05T09:28:50.604096","PERIOD":"95.593","MEAN_MOTION_DOT":"-0.00002415","EPHEMERIS_TYPE":"0","ELEMENT_SET_NO":"999","CLASSIFICATION_TYPE":"U","SITE":"AFETR","TLE_LINE1":"1 48465U 21040AP  22309.39503014 -.00002415  00000-0 -14333-3 0  9996","APOAPSIS":"548.683","OBJECT_ID":"2021-040AP","OBJECT_TYPE":"PAYLOAD","PERIAPSIS":"545.815","REF_FRAME":"TEME","COUNTRY_CODE":"US","FILE":"3645109","LAUNCH_DATE":"2021-05-09","REV_AT_EPOCH":"8384","MEAN_MOTION_DDOT":"0.0000000000000","ECCENTRICITY":"0.00020710","TLE_LINE2":"2 48465  53.0531 269.7277 0002071  45.3530 314.7627 15.06388395 83847","BSTAR":"-0.00014333000000","OBJECT_NAME":"STARLINK-2681","ARG_OF_PERICENTER":"45.3530","CENTER_NAME":"EARTH","SEMIMAJOR_AXIS":"6925.384","RA_OF_ASC_NODE":"269.7277","MEAN_ELEMENT_THEORY":"SGP4","MEAN_ANOMALY":"314.7627","RCS_SIZE":"LARGE","TIME_SYSTEM":"UTC","MEAN_MOTION":"15.06388395","GP_ID":"216961844"},{"CLASSIFICATION_TYPE":"U","APOAPSIS":"548.712","TLE_LINE1":"1 48466U 21040AQ  22309.24758344 -.00000924  00000-0 -43133-4 0  9993","SITE":"AFETR","NORAD_CAT_ID":"48466","DECAY_DATE":null,"EPOCH":"2022-11-05T05:56:31.209216","INCLINATION":"53.0535","MEAN_MOTION_DOT":"-0.00000924","ELEMENT_SET_NO":"999","EPHEMERIS_TYPE":"0","PERIOD":"95.592","BSTAR":"-0.00004313300000","TLE_LINE2":"2 48466  53.0535 270.3987 0002173  36.1705 323.9431 15.06402213 82551","OBJECT_NAME":"STARLINK-2687","ARG_OF_PERICENTER":"36.1705","REV_AT_EPOCH":"8255","MEAN_MOTION_DDOT":"0.0000000000000","ECCENTRICITY":"0.00021730","TIME_SYSTEM":"UTC","RCS_SIZE":"LARGE","MEAN_MOTION":"15.06402213","GP_ID":"216962595","CENTER_NAME":"EARTH","SEMIMAJOR_AXIS":"6925.342","MEAN_ELEMENT_THEORY":"SGP4","RA_OF_ASC_NODE":"270.3987","MEAN_ANOMALY":"323.9431","OBJECT_TYPE":"PAYLOAD","OBJECT_ID":"2021-040AQ","FILE":"3645109","LAUNCH_DATE":"2021-05-09","PERIAPSIS":"545.702","REF_FRAME":"TEME","COUNTRY_CODE":"US"},{"PERIOD":"95.592","MEAN_MOTION_DOT":"-0.00000951","EPHEMERIS_TYPE":"0","ELEMENT_SET_NO":"999","INCLINATION":"53.0549","NORAD_CAT_ID":"48467","DECAY_DATE":null,"EPOCH":"2022-11-05T03:22:36.244128","APOAPSIS":"548.610","TLE_LINE1":"1 48467U 21040AR  22309.14069727 -.00000951  00000-0 -44963-4 0  9995","SITE":"AFETR","CLASSIFICATION_TYPE":"U","PERIAPSIS":"545.844","REF_FRAME":"TEME","COUNTRY_CODE":"US","FILE":"3645109","LAUNCH_DATE":"2021-05-09","OBJECT_ID":"2021-040AR","OBJECT_TYPE":"PAYLOAD","CENTER_NAME":"EARTH","SEMIMAJOR_AXIS":"6925.362","MEAN_ELEMENT_THEORY":"SGP4","RA_OF_ASC_NODE":"270.8862","MEAN_ANOMALY":"310.3140","RCS_SIZE":"LARGE","TIME_SYSTEM":"UTC","GP_ID":"216960843","MEAN_MOTION":"15.06395702","REV_AT_EPOCH":"8253","MEAN_MOTION_DDOT":"0.0000000000000","ECCENTRICITY":"0.00019970","BSTAR":"-0.00004496300000","TLE_LINE2":"2 48467  53.0549 270.8862 0001997  49.8024 310.3140 15.06395702 82531","OBJECT_NAME":"STARLINK-2659","ARG_OF_PERICENTER":"49.8024"},{"FILE":"3646421","LAUNCH_DATE":"2021-05-09","PERIAPSIS":"546.005","REF_FRAME":"TEME","COUNTRY_CODE":"US","OBJECT_TYPE":"PAYLOAD","OBJECT_ID":"2021-040AS","RCS_SIZE":"LARGE","TIME_SYSTEM":"UTC","MEAN_MOTION":"15.06408026","GP_ID":"216993931","CENTER_NAME":"EARTH","SEMIMAJOR_AXIS":"6925.324","RA_OF_ASC_NODE":"270.0795","MEAN_ELEMENT_THEORY":"SGP4","MEAN_ANOMALY":"304.6963","TLE_LINE2":"2 48468  53.0559 270.0795 0001710  55.4187 304.6963 15.06408026 83833","BSTAR":"0.00001144700000","OBJECT_NAME":"STARLINK-2685","ARG_OF_PERICENTER":"55.4187","REV_AT_EPOCH":"8383","MEAN_MOTION_DDOT":"0.0000000000000","ECCENTRICITY":"0.00017100","MEAN_MOTION_DOT":"-0.00000111","ELEMENT_SET_NO":"999","EPHEMERIS_TYPE":"0","PERIOD":"95.592","NORAD_CAT_ID":"48468","DECAY_DATE":null,"EPOCH":"2022-11-05T07:42:40.417632","INCLINATION":"53.0559","TLE_LINE1":"1 48468U 21040AS  22309.32130113 -.00000111  00000-0  11447-4 0  9992","APOAPSIS":"548.373","SITE":"AFETR","CLASSIFICATION_TYPE":"U"},{"ECCENTRICITY":"0.00023150","REV_AT_EPOCH":"8260","MEAN_MOTION_DDOT":"0.0000000000000","ARG_OF_PERICENTER":"58.7488","BSTAR":"-0.00019467000000","TLE_LINE2":"2 48469  53.0532 268.7993 0002315  58.7488 301.3728 15.06381450 82609","OBJECT_NAME":"STARLINK-2661","MEAN_ELEMENT_THEORY":"SGP4","RA_OF_ASC_NODE":"268.7993","MEAN_ANOMALY":"301.3728","CENTER_NAME":"EARTH","SEMIMAJOR_AXIS":"6925.405","MEAN_MOTION":"15.06381450","GP_ID":"217017083","TIME_SYSTEM":"UTC","RCS_SIZE":"LARGE","OBJECT_ID":"2021-040AT","OBJECT_TYPE":"PAYLOAD","REF_FRAME":"TEME","COUNTRY_CODE":"US","PERIAPSIS":"545.667","LAUNCH_DATE":"2021-05-09","FILE":"3646512","CLASSIFICATION_TYPE":"U","SITE":"AFETR","TLE_LINE1":"1 48469U 21040AT  22309.60144642 -.00003179  00000-0 -19467-3 0  9993","APOAPSIS":"548.874","INCLINATION":"53.0532","EPOCH":"2022-11-05T14:26:04.970688","NORAD_CAT_ID":"48469","DECAY_DATE":null,"PERIOD":"95.593","EPHEMERIS_TYPE":"0","ELEMENT_SET_NO":"999","MEAN_MOTION_DOT":"-0.00003179"},{"TLE_LINE1":"1 48470U 21040AU  22309.59681807 -.00005076  00000-0 -32227-3 0  9999","SITE":"AFETR","APOAPSIS":"549.083","CLASSIFICATION_TYPE":"U","EPHEMERIS_TYPE":"0","ELEMENT_SET_NO":"999","MEAN_MOTION_DOT":"-0.00005076","PERIOD":"95.594","EPOCH":"2022-11-05T14:19:25.081248","NORAD_CAT_ID":"48470","DECAY_DATE":null,"INCLINATION":"53.0550","GP_ID":"217017333","MEAN_MOTION":"15.06376700","RCS_SIZE":"LARGE","TIME_SYSTEM":"UTC","RA_OF_ASC_NODE":"268.8243","MEAN_ELEMENT_THEORY":"SGP4","MEAN_ANOMALY":"319.9535","CENTER_NAME":"EARTH","SEMIMAJOR_AXIS":"6925.420","ARG_OF_PERICENTER":"40.1646","BSTAR":"-0.00032227000000","TLE_LINE2":"2 48470  53.0550 268.8243 0002596  40.1646 319.9535 15.06376700 82593","OBJECT_NAME":"STARLINK-2675","ECCENTRICITY":"0.00025960","REV_AT_EPOCH":"8259","MEAN_MOTION_DDOT":"0.0000000000000","LAUNCH_DATE":"2021-05-09","FILE":"3646512","REF_FRAME":"TEME","COUNTRY_CODE":"US","PERIAPSIS":"545.487","OBJECT_TYPE":"PAYLOAD","OBJECT_ID":"2021-040AU"},{"INCLINATION":"53.0521","EPOCH":"2022-11-05T14:10:08.986656","NORAD_CAT_ID":"48471","DECAY_DATE":null,"PERIOD":"95.593","EPHEMERIS_TYPE":"0","ELEMENT_SET_NO":"999","MEAN_MOTION_DOT":"-0.00003057","CLASSIFICATION_TYPE":"U","TLE_LINE1":"1 48471U 21040AV  22309.59038179 -.00003057  00000-0 -18642-3 0  9990","APOAPSIS":"548.701","SITE":"AFETR","OBJECT_ID":"2021-040AV","OBJECT_TYPE":"PAYLOAD","REF_FRAME":"TEME","COUNTRY_CODE":"US","PERIAPSIS":"545.787","LAUNCH_DATE":"2021-05-09","FILE":"3646512","ECCENTRICITY":"0.00021040","REV_AT_EPOCH":"8259","MEAN_MOTION_DDOT":"0.0000000000000","ARG_OF_PERICENTER":"39.1419","BSTAR":"-0.00018642000000","TLE_LINE2":"2 48471  53.0521 268.8485 0002104  39.1419 320.9722 15.06390146 82591","OBJECT_NAME":"STARLINK-2684","RA_OF_ASC_NODE":"268.8485","MEAN_ELEMENT_THEORY":"SGP4","MEAN_ANOMALY":"320.9722","CENTER_NAME":"EARTH","SEMIMAJOR_AXIS":"6925.379","MEAN_MOTION":"15.06390146","GP_ID":"217018085","TIME_SYSTEM":"UTC","RCS_SIZE":"LARGE"},{"PERIOD":"95.592","ELEMENT_SET_NO":"999","EPHEMERIS_TYPE":"0","MEAN_MOTION_DOT":"-0.00000804","INCLINATION":"53.0548","EPOCH":"2022-11-05T07:21:27.134784","NORAD_CAT_ID":"48472","DECAY_DATE":null,"SITE":"AFETR","TLE_LINE1":"1 48472U 21040AW  22309.30656406 -.00000804  00000-0 -35103-4 0  9998","APOAPSIS":"548.534","CLASSIFICATION_TYPE":"U","REF_FRAME":"TEME","COUNTRY_CODE":"US","PERIAPSIS":"545.897","LAUNCH_DATE":"2021-05-09","FILE":"3645109","OBJECT_ID":"2021-040AW","OBJECT_TYPE":"PAYLOAD","MEAN_ELEMENT_THEORY":"SGP4","RA_OF_ASC_NODE":"270.1436","MEAN_ANOMALY":"313.3238","CENTER_NAME":"EARTH","SEMIMAJOR_AXIS":"6925.350","GP_ID":"216961594","MEAN_MOTION":"15.06399405","RCS_SIZE":"LARGE","TIME_SYSTEM":"UTC","ECCENTRICITY":"0.00019040","REV_AT_EPOCH":"8254","MEAN_MOTION_DDOT":"0.0000000000000","ARG_OF_PERICENTER":"46.7910","BSTAR":"-0.00003510300000","TLE_LINE2":"2 48472  53.0548 270.1436 0001904  46.7910 313.3238 15.06399405 82540","OBJECT_NAME":"STARLINK-2722"}];
